LEMUR-2-LEIA-PHILIP     
1 63246U 25052AN  26201.95035650  .00000395  00000+0  38912-4 0  9992
2 63246  97.6789  93.3277 0005050 107.6890 252.4884 14.97394872 73727
LEMUR-2-LIA-MARTIN      
1 63248U 25052AQ  26201.94242238  .00002021  00000+0  17588-3 0  9998
2 63248  97.6848  93.8486 0004896  75.7927 284.3839 14.98050706 73736
LEMUR-2-DELOITTE-1      
1 63259U 25052BB  26201.25575784  .00002458  00000+0  21412-3 0  9994
2 63259  97.6886  93.5026 0002529  57.2347 302.9118 14.97807195 73647
LEMUR-2-EMERSONROSE     
1 63261U 25052BD  26201.26484667  .00002290  00000+0  19231-3 0  9997
2 63261  97.6885  94.1364 0002432  47.4222 312.7206 14.99315888 73694
LEMUR-2-MARACHE-FRAN    
1 63262U 25052BE  26201.41750040  .00001851  00000+0  15230-3 0  9993
2 63262  97.6815  94.6586 0005815 231.5987 128.4715 15.00333801 73742
LEMUR-2-THEFALCONER     
1 63264U 25052BG  26201.95513564  .00001744  00000+0  15431-3 0  9996
2 63264  97.6813  93.7751 0000767 216.0901 144.0269 14.97579793 73746
LEMUR-2-UNTITLED-SC     
1 63351U 25061A   26201.80503112  .00002247  00000+0  12808-3 0  9999
2 63351  97.5661 176.9302 0019719 144.4715 215.7834 15.13669097 72674
LEMUR-2-ESPERANZA       
1 63352U 25061B   26201.91217600  .00002127  00000+0  12113-3 0  9992
2 63352  97.5668 177.1382 0019356 143.5155 216.7400 15.13775558 72690
LEMUR-2-KREMPEL-BRO2    
1 63353U 25061C   26201.92953666  .00002332  00000+0  13083-3 0  9998
2 63353  97.5714 177.7317 0020468 136.4327 223.8526 15.14203412 72712
LEMUR-2-THERMORAPTOR    
1 63354U 25061D   26201.90977973  .00002286  00000+0  12802-3 0  9990
2 63354  97.5720 177.7943 0020187 135.4604 224.8255 15.14286443 72715
LEMUR-2-NEUROSPICY      
1 63355U 25061E   26201.87884645  .00002310  00000+0  12904-3 0  9991
2 63355  97.5648 177.3637 0017959 138.3390 221.9213 15.14404805 72714
LEMUR-2-TILLINFINITY    
1 63356U 25061F   26201.90112556  .00002527  00000+0  13843-3 0  9994
2 63356  97.5632 177.6998 0019489 127.4100 232.8910 15.14989431 72740
LEMUR-2-KREMPEL-BRO1    
1 63357U 25061G   26201.87890455  .00002321  00000+0  12808-3 0  9994
2 63357  97.5634 177.5844 0020100 128.7862 231.5169 15.14796156 72734
LEMUR-2-LANGER2SPACE    
1 63358U 25061H   26201.91217913  .00002310  00000+0  12869-3 0  9997
2 63358  97.5638 177.4179 0017891 136.6750 223.5892 15.14490073 72728
LEMUR-2-BALTO           
1 63395U 25052BH  26201.93520365  .00002977  00000+0  24163-3 0  9997
2 63395  97.6918  95.1660 0004987 302.7684  57.3058 15.00393568 73821
LEMUR-2-KRISH           
1 64561U 25135AK  26201.84398577  .00002994  00000+0  26886-3 0  9996
2 64561  97.7761 316.4983 0001130 108.4147 251.7198 14.96473292 58952
