{"fetched_at":"2026-07-21T07:06:33.367Z","source":"https://celestrak.org/NORAD/elements/gp.php?GROUP=spire&FORMAT=JSON","constellation":"spire","records":[{"OBJECT_NAME":"LEMUR-2-LEIA-PHILIP","OBJECT_ID":"2025-052AN","EPOCH":"2026-07-20T22:48:30.801600","CLASSIFICATION_TYPE":"U","MEAN_MOTION":14.97394872,"ECCENTRICITY":0.00050508,"INCLINATION":97.6789,"RA_OF_ASC_NODE":93.3277,"ARG_OF_PERICENTER":107.689,"MEAN_ANOMALY":252.4884,"EPHEMERIS_TYPE":0,"NORAD_CAT_ID":63246,"ELEMENT_SET_NO":999,"REV_AT_EPOCH":7372,"BSTAR":0.000038911831,"MEAN_MOTION_DOT":0.00000395,"MEAN_MOTION_DDOT":0},{"OBJECT_NAME":"LEMUR-2-LIA-MARTIN","OBJECT_ID":"2025-052AQ","EPOCH":"2026-07-20T22:37:05.293632","CLASSIFICATION_TYPE":"U","MEAN_MOTION":14.98050706,"ECCENTRICITY":0.00048963,"INCLINATION":97.6848,"RA_OF_ASC_NODE":93.8486,"ARG_OF_PERICENTER":75.7927,"MEAN_ANOMALY":284.3839,"EPHEMERIS_TYPE":0,"NORAD_CAT_ID":63248,"ELEMENT_SET_NO":999,"REV_AT_EPOCH":7373,"BSTAR":0.00017587929,"MEAN_MOTION_DOT":0.00002021,"MEAN_MOTION_DDOT":0},{"OBJECT_NAME":"LEMUR-2-DELOITTE-1","OBJECT_ID":"2025-052BB","EPOCH":"2026-07-20T06:08:17.477376","CLASSIFICATION_TYPE":"U","MEAN_MOTION":14.97807195,"ECCENTRICITY":0.00025299,"INCLINATION":97.6886,"RA_OF_ASC_NODE":93.5026,"ARG_OF_PERICENTER":57.2347,"MEAN_ANOMALY":302.9118,"EPHEMERIS_TYPE":0,"NORAD_CAT_ID":63259,"ELEMENT_SET_NO":999,"REV_AT_EPOCH":7364,"BSTAR":0.00021411742,"MEAN_MOTION_DOT":0.00002458,"MEAN_MOTION_DDOT":0},{"OBJECT_NAME":"LEMUR-2-EMERSONROSE","OBJECT_ID":"2025-052BD","EPOCH":"2026-07-20T06:21:22.752288","CLASSIFICATION_TYPE":"U","MEAN_MOTION":14.99315888,"ECCENTRICITY":0.00024327,"INCLINATION":97.6885,"RA_OF_ASC_NODE":94.1364,"ARG_OF_PERICENTER":47.4222,"MEAN_ANOMALY":312.7206,"EPHEMERIS_TYPE":0,"NORAD_CAT_ID":63261,"ELEMENT_SET_NO":999,"REV_AT_EPOCH":7369,"BSTAR":0.00019231381,"MEAN_MOTION_DOT":0.0000229,"MEAN_MOTION_DDOT":0},{"OBJECT_NAME":"LEMUR-2-MARACHE-FRAN","OBJECT_ID":"2025-052BE","EPOCH":"2026-07-20T10:01:12.034560","CLASSIFICATION_TYPE":"U","MEAN_MOTION":15.00333801,"ECCENTRICITY":0.00058158,"INCLINATION":97.6815,"RA_OF_ASC_NODE":94.6586,"ARG_OF_PERICENTER":231.5987,"MEAN_ANOMALY":128.4715,"EPHEMERIS_TYPE":0,"NORAD_CAT_ID":63262,"ELEMENT_SET_NO":999,"REV_AT_EPOCH":7374,"BSTAR":0.00015229593,"MEAN_MOTION_DOT":0.00001851,"MEAN_MOTION_DDOT":0},{"OBJECT_NAME":"LEMUR-2-THEFALCONER","OBJECT_ID":"2025-052BG","EPOCH":"2026-07-20T22:55:23.719296","CLASSIFICATION_TYPE":"U","MEAN_MOTION":14.97579793,"ECCENTRICITY":0.00007675,"INCLINATION":97.6813,"RA_OF_ASC_NODE":93.7751,"ARG_OF_PERICENTER":216.0901,"MEAN_ANOMALY":144.0269,"EPHEMERIS_TYPE":0,"NORAD_CAT_ID":63264,"ELEMENT_SET_NO":999,"REV_AT_EPOCH":7374,"BSTAR":0.0001543125,"MEAN_MOTION_DOT":0.00001744,"MEAN_MOTION_DDOT":0},{"OBJECT_NAME":"LEMUR-2-UNTITLED-SC","OBJECT_ID":"2025-061A","EPOCH":"2026-07-20T19:19:14.688768","CLASSIFICATION_TYPE":"U","MEAN_MOTION":15.13669097,"ECCENTRICITY":0.00197191,"INCLINATION":97.5661,"RA_OF_ASC_NODE":176.9302,"ARG_OF_PERICENTER":144.4715,"MEAN_ANOMALY":215.7834,"EPHEMERIS_TYPE":0,"NORAD_CAT_ID":63351,"ELEMENT_SET_NO":999,"REV_AT_EPOCH":7267,"BSTAR":0.0001280848,"MEAN_MOTION_DOT":0.00002247,"MEAN_MOTION_DDOT":0},{"OBJECT_NAME":"LEMUR-2-ESPERANZA","OBJECT_ID":"2025-061B","EPOCH":"2026-07-20T21:53:32.006400","CLASSIFICATION_TYPE":"U","MEAN_MOTION":15.13775558,"ECCENTRICITY":0.00193561,"INCLINATION":97.5668,"RA_OF_ASC_NODE":177.1382,"ARG_OF_PERICENTER":143.5155,"MEAN_ANOMALY":216.74,"EPHEMERIS_TYPE":0,"NORAD_CAT_ID":63352,"ELEMENT_SET_NO":999,"REV_AT_EPOCH":7269,"BSTAR":0.00012112913,"MEAN_MOTION_DOT":0.00002127,"MEAN_MOTION_DDOT":0},{"OBJECT_NAME":"LEMUR-2-KREMPEL-BRO2","OBJECT_ID":"2025-061C","EPOCH":"2026-07-20T22:18:31.967424","CLASSIFICATION_TYPE":"U","MEAN_MOTION":15.14203412,"ECCENTRICITY":0.00204688,"INCLINATION":97.5714,"RA_OF_ASC_NODE":177.7317,"ARG_OF_PERICENTER":136.4327,"MEAN_ANOMALY":223.8526,"EPHEMERIS_TYPE":0,"NORAD_CAT_ID":63353,"ELEMENT_SET_NO":999,"REV_AT_EPOCH":7271,"BSTAR":0.00013082691,"MEAN_MOTION_DOT":0.00002332,"MEAN_MOTION_DDOT":0},{"OBJECT_NAME":"LEMUR-2-THERMORAPTOR","OBJECT_ID":"2025-061D","EPOCH":"2026-07-20T21:50:04.968672","CLASSIFICATION_TYPE":"U","MEAN_MOTION":15.14286443,"ECCENTRICITY":0.00201879,"INCLINATION":97.572,"RA_OF_ASC_NODE":177.7943,"ARG_OF_PERICENTER":135.4604,"MEAN_ANOMALY":224.8255,"EPHEMERIS_TYPE":0,"NORAD_CAT_ID":63354,"ELEMENT_SET_NO":999,"REV_AT_EPOCH":7271,"BSTAR":0.00012802032,"MEAN_MOTION_DOT":0.00002286,"MEAN_MOTION_DDOT":0},{"OBJECT_NAME":"LEMUR-2-NEUROSPICY","OBJECT_ID":"2025-061E","EPOCH":"2026-07-20T21:05:32.333280","CLASSIFICATION_TYPE":"U","MEAN_MOTION":15.14404805,"ECCENTRICITY":0.00179593,"INCLINATION":97.5648,"RA_OF_ASC_NODE":177.3637,"ARG_OF_PERICENTER":138.339,"MEAN_ANOMALY":221.9213,"EPHEMERIS_TYPE":0,"NORAD_CAT_ID":63355,"ELEMENT_SET_NO":999,"REV_AT_EPOCH":7271,"BSTAR":0.00012904134,"MEAN_MOTION_DOT":0.0000231,"MEAN_MOTION_DDOT":0},{"OBJECT_NAME":"LEMUR-2-TILLINFINITY","OBJECT_ID":"2025-061F","EPOCH":"2026-07-20T21:37:37.248384","CLASSIFICATION_TYPE":"U","MEAN_MOTION":15.14989431,"ECCENTRICITY":0.00194898,"INCLINATION":97.5632,"RA_OF_ASC_NODE":177.6998,"ARG_OF_PERICENTER":127.41,"MEAN_ANOMALY":232.891,"EPHEMERIS_TYPE":0,"NORAD_CAT_ID":63356,"ELEMENT_SET_NO":999,"REV_AT_EPOCH":7274,"BSTAR":0.00013843006,"MEAN_MOTION_DOT":0.00002527,"MEAN_MOTION_DDOT":0},{"OBJECT_NAME":"LEMUR-2-KREMPEL-BRO1","OBJECT_ID":"2025-061G","EPOCH":"2026-07-20T21:05:37.353120","CLASSIFICATION_TYPE":"U","MEAN_MOTION":15.14796156,"ECCENTRICITY":0.00201001,"INCLINATION":97.5634,"RA_OF_ASC_NODE":177.5844,"ARG_OF_PERICENTER":128.7862,"MEAN_ANOMALY":231.5169,"EPHEMERIS_TYPE":0,"NORAD_CAT_ID":63357,"ELEMENT_SET_NO":999,"REV_AT_EPOCH":7273,"BSTAR":0.00012807574,"MEAN_MOTION_DOT":0.00002321,"MEAN_MOTION_DDOT":0},{"OBJECT_NAME":"LEMUR-2-LANGER2SPACE","OBJECT_ID":"2025-061H","EPOCH":"2026-07-20T21:53:32.276832","CLASSIFICATION_TYPE":"U","MEAN_MOTION":15.14490073,"ECCENTRICITY":0.00178915,"INCLINATION":97.5638,"RA_OF_ASC_NODE":177.4179,"ARG_OF_PERICENTER":136.675,"MEAN_ANOMALY":223.5892,"EPHEMERIS_TYPE":0,"NORAD_CAT_ID":63358,"ELEMENT_SET_NO":999,"REV_AT_EPOCH":7272,"BSTAR":0.00012868601,"MEAN_MOTION_DOT":0.0000231,"MEAN_MOTION_DDOT":0},{"OBJECT_NAME":"LEMUR-2-BALTO","OBJECT_ID":"2025-052BH","EPOCH":"2026-07-20T22:26:41.595360","CLASSIFICATION_TYPE":"U","MEAN_MOTION":15.00393568,"ECCENTRICITY":0.00049874,"INCLINATION":97.6918,"RA_OF_ASC_NODE":95.166,"ARG_OF_PERICENTER":302.7684,"MEAN_ANOMALY":57.3058,"EPHEMERIS_TYPE":0,"NORAD_CAT_ID":63395,"ELEMENT_SET_NO":999,"REV_AT_EPOCH":7382,"BSTAR":0.00024163224,"MEAN_MOTION_DOT":0.00002977,"MEAN_MOTION_DDOT":0},{"OBJECT_NAME":"LEMUR-2-KRISH","OBJECT_ID":"2025-135AK","EPOCH":"2026-07-20T20:15:20.370528","CLASSIFICATION_TYPE":"U","MEAN_MOTION":14.96473292,"ECCENTRICITY":0.00011305,"INCLINATION":97.7761,"RA_OF_ASC_NODE":316.4983,"ARG_OF_PERICENTER":108.4147,"MEAN_ANOMALY":251.7198,"EPHEMERIS_TYPE":0,"NORAD_CAT_ID":64561,"ELEMENT_SET_NO":999,"REV_AT_EPOCH":5895,"BSTAR":0.00026885774,"MEAN_MOTION_DOT":0.00002994,"MEAN_MOTION_DDOT":0}]}
